[{"OBJECT_NAME":"LEMUR-2-GREENBERG","OBJECT_ID":"2017-042N","EPOCH":"2026-03-09T11:05:17.256192","MEAN_MOTION":15.27971352,"ECCENTRICITY":0.00091572,"INCLINATION":97.3781,"RA_OF_ASC_NODE":249.8007,"ARG_OF_PERICENTER":4.0119,"MEAN_ANOMALY":356.1192,"EPHEMERIS_TYPE":0,"CLASSIFICATION_TYPE":"U","NORAD_CAT_ID":42837,"ELEMENT_SET_NO":999,"REV_AT_EPOCH":47314,"BSTAR":0.00072539172,"MEAN_MOTION_DOT":0.00019778,"MEAN_MOTION_DDOT":0},{"OBJECT_NAME":"STARLINK-33645","OBJECT_ID":"2025-065P","EPOCH":"2026-03-09T12:06:44.893728","MEAN_MOTION":15.2759334,"ECCENTRICITY":0.00023319,"INCLINATION":43.0048,"RA_OF_ASC_NODE":111.3358,"ARG_OF_PERICENTER":259.2184,"MEAN_ANOMALY":100.8405,"EPHEMERIS_TYPE":0,"CLASSIFICATION_TYPE":"U","NORAD_CAT_ID":63412,"ELEMENT_SET_NO":999,"REV_AT_EPOCH":5277,"BSTAR":0.0011407756,"MEAN_MOTION_DOT":0.00031276,"MEAN_MOTION_DDOT":0}]
